0 SL-8 DEB
1 15785U 84019C   13282.01985179  .00001082  00000-0  25880-3 0  9687
2 15785 074.0380 137.0199 0010490 273.9630 211.4274 14.54788023657803
0 SL-8 DEB
1 15785U 84019C   13283.05666990  .00001018  00000-0  24386-3 0  9699
2 15785 074.0379 135.0582 0010476 272.0058 241.2206 14.54789697657953
0 SL-8 DEB
1 15785U 84019C   13286.01357392  .00001084  00000-0  25935-3 0  9718
2 15785 074.0375 129.4638 0010444 266.3354 246.5998 14.54795851658381
0 SL-8 DEB
1 15785U 84019C   13288.00765683  .00001814  00000-0  42930-3 0  9721
2 15785 074.0374 125.6907 0010422 262.5575 249.6525 14.54802363658675
0 SL-8 DEB
1 15785U 84019C   13290.52880767  .00001436  00000-0  34116-3 0  9730
2 15785 074.0376 120.9203 0010387 257.7204 133.1030 14.54810834659041
0 SL-8 DEB
1 15785U 84019C   13292.52307928  .00001617  00000-0  38327-3 0  9745
2 15785 074.0376 117.1464 0010354 253.8152 137.3847 14.54816031659330
0 SL-8 DEB
1 15785U 84019C   13293.55931647  .00001859  00000-0  43968-3 0  9756
2 15785 074.0379 115.1861 0010322 251.9114 164.1978 14.54818628659487
0 SL-8 DEB
1 15785U 84019C   13294.95305934  .00001991  00000-0  47041-3 0  9769
2 15785 074.0377 112.5482 0010301 249.3128 263.3345 14.54822959659682
